1 25981U 99065B   19273.23556010 +.00000083 +00000-0 +81289-4 0  9991
2 25981 045.0235 190.1722 0003057 047.0365 313.0738 14.32800883034524
1 25981U 99065B   19274.14199981  .00000091  00000-0  84386-4 0  9992
2 25981  45.0236 185.9123 0003022  52.8069 307.3053 14.32801327 35542
1 25981U 99065B   19274.83926088 +.00000095 +00000-0 +85830-4 0  9993
2 25981 045.0236 182.6355 0003002 057.3220 302.7916 14.32801704034758
1 25981U 99065B   19275.25761746  .00000098  00000-0  86694-4 0  9990
2 25981  45.0236 180.6695 0002998  59.9994 300.1150 14.32801944 35706
1 25981U 99065B   19276.86131705 +.00000083 +00000-0 +81504-4 0  9993
2 25981 045.0237 173.1330 0002965 070.4648 289.6519 14.32802723035041
1 25981U 99065B   19277.07049525  .00000081  00000-0  80487-4 0  9992
2 25981  45.0237 172.1500 0002964  71.9126 288.2043 14.32802794 35961
1 25981U 99065B   19277.83748161 +.00000072 +00000-0 +77456-4 0  9990
2 25981 045.0237 168.5456 0002955 076.9311 283.1865 14.32803125035180
1 25981U 99065B   19278.11638578  .00000066  00000-0  75052-4 0  9995
2 25981  45.0236 167.2349 0002957  78.9032 281.2147 14.32803185 36112
1 25981U 99065B   19278.88337197 +.00000054 +00000-0 +70952-4 0  9993
2 25981 045.0236 163.6305 0002963 084.0747 276.0437 14.32803418035338
1 25981U 99065B   19279.72008397  .00000052  00000-0  69908-4 0  9991
2 25981  45.0235 159.6983 0002972  89.6153 270.5034 14.32803672 36342
1 25981U 99065B   19279.85953595 +.00000051 +00000-0 +69698-4 0  9999
2 25981 045.0235 159.0430 0002978 090.6027 269.5160 14.32803718035473
1 25981U 99065B   19280.90542551 +.00000057 +00000-0 +71733-4 0  9992
2 25981 045.0234 154.1277 0003009 097.6559 262.4629 14.32804091035624
1 25981U 99065B   19281.11460336  .00000062  00000-0  73889-4 0  9996
2 25981  45.0233 153.1447 0003021  98.9537 261.1652 14.32804206 36547
1 25981U 99065B   19281.88158867 +.00000067 +00000-0 +75380-4 0  9996
2 25981 045.0233 149.5402 0003039 104.0652 256.0533 14.32804520035766
1 25981U 99065B   19282.64857374  .00000074  00000-0  78208-4 0  9990
2 25981  45.0232 145.9357 0003070 109.0128 251.1051 14.32804895 36769
1 25981U 99065B   19282.85775144 +.00000074 +00000-0 +78230-4 0  9992
2 25981 045.0232 144.9526 0003079 110.4112 249.7066 14.32804999035903
1 25981U 99065B   19283.76418798  .00000079  00000-0  79900-4 0  9992
2 25981  45.0232 140.6926 0003131 116.2795 243.8373 14.32805467 36920
1 25981U 99065B   19283.90363980 +.00000077 +00000-0 +79105-4 0  9995
2 25981 045.0232 140.0373 0003142 117.1992 242.9175 14.32805497036058
1 25981U 99065B   19284.81007607 +.00000077 +00000-0 +79339-4 0  9996
2 25981 045.0232 135.7774 0003186 122.9270 237.1883 14.32805925036187
